name,name_translation,address,google_maps_url,cuisine,latitude,longitude
Mian Sichuan Noodles and Dumplings,滋味小面,"3540 Homestead Rd, Santa Clara, CA 95051",https://maps.app.goo.gl/wLyVZ9ZvS5BnJJJV8,Chinese,37.3362720,-121.9941848
Ping's Bistro Cupertino,留湘·小聚,"10700 S De Anza Blvd, Cupertino, CA 95014",https://maps.app.goo.gl/us6ZbmxmE12ada7e6,Chinese,37.3131060,-122.0319021
Ping's Bistro Warm Springs,留湘·小聚,"2090 Warm Springs Ct Ste 140, Fremont, CA 94539",https://maps.app.goo.gl/h42a9rTMuJt9h3jN6,Chinese,37.4968987,-121.9357968
Ping‘s Bistro San Mateo,留湘·小聚,"2946 S Norfolk St, San Mateo, CA 94403",https://maps.app.goo.gl/F7PaiUYt3rBSP1CM8,Chinese,37.5449014,-122.2852701
Hu Din Ji Shanghai Bistro,沪鼎记,"39169 Cedar Blvd, Newark, CA 94560",https://maps.app.goo.gl/ANTRKwezxLy8pEsT6,Chinese,37.5231047,-122.0058949
Hunan Impression,韶山印象,"5152 Moorpark Ave #30, San Jose, CA 95129",https://maps.app.goo.gl/cosZU2yvPaRbK3Sg7,Chinese,37.3088203,-121.9943234
H.L. Peninsula Restaurant,半岛豪苑酒家,"136 Ranch Dr, Milpitas, CA 95035",https://maps.app.goo.gl/DCgfwNeWh2KALuy48,Chinese,37.4266426,-121.9195828
Ishanghai Delight,阿拉上海,"2855 Stevens Creek Blvd #2329, Santa Clara, CA 95050",https://maps.app.goo.gl/Qh3FkUiLgsVi22xq9,Chinese,37.3252150,-121.9469022
I Shanghai Delight,阿拉上海,"6016 Stevenson Blvd, Fremont, CA 94538",https://maps.app.goo.gl/o1wjt12BTM2rwk967,Chinese,37.5193545,-121.9897423
Yum Noodles,扬裕兴,"Stephen's Plaza, 5223 Stevens Creek Blvd, Santa Clara, CA 95051",https://maps.app.goo.gl/eqDBMRif362xLbno6,Chinese,37.3239899,-121.9941515
SweetHome Kitchen,家之味,"1312 Saratoga Ave, San Jose, CA 95129",https://maps.app.goo.gl/EnLwLLtc7beZzfYz7,Chinese,37.3002934,-121.9802745
Jun Bistro,菌出云南,"290 Barber Ct, Milpitas, CA 95035",https://maps.app.goo.gl/7noh1hASpFGx3Mjp7,Chinese,37.4236648,-121.9174102
Kusan Bazaar,龟兹集市,"510 Barber Ln, Milpitas, CA 95035",https://maps.app.goo.gl/hDT6Sy3xzx3n22ES8,Chinese,37.4208538,-121.9161358
LeShan Beef,乐山古镇跷脚牛肉,"1072 S De Anza Blvd B103, San Jose, CA 95129",https://maps.app.goo.gl/RjnHD1k8ywwj9Rzz5,Chinese,37.3075740,-122.0314474
Shanghai Noodle House,上海面馆,"40575 Fremont Blvd, Fremont, CA 94538",https://maps.app.goo.gl/PAdvubyHwZURpadn7,Chinese,37.5358605,-121.9652854
575 Miishien,过桥米线,"840 El Paseo de Saratoga, San Jose, CA 95130",https://maps.app.goo.gl/uyzi46VruXggKKVz8,Chinese,37.2887959,-121.9902091
Drunken Monk,,"1438 El Camino Real, Menlo Park, CA 94025",https://maps.app.goo.gl/gT5i594ciTmrh9K66,Japanese,37.4565375,-122.1883738
Dan Izakaya Restaurant,,"1306 Saratoga Ave, San Jose, CA 95129",https://maps.app.goo.gl/Yg9xmTPAjqyzNEFQA,Japanese,37.3002122,-121.9800294
Ondam,,"2450 El Camino Real, Santa Clara, CA 95051",https://maps.app.goo.gl/Kj1j11SUh131fjMh8,Korean,37.3518572,-121.9694883
M Dumpling,麦田小馆,"47001 Warm Springs Blvd, Fremont, CA 94539",https://maps.app.goo.gl/qZ3vVC69mpDAB14y6,Chinese,37.4872319,-121.9286226
Red Hot Wok,好客栈,"10074 E Estates Dr, Cupertino, CA 95014",https://maps.app.goo.gl/qjTnDUzhuEfPZ5Az7,Chinese,37.3221034,-122.0148718
Red Hot Wok,好客栈,"3345 El Camino Real, Palo Alto, CA 94306",https://maps.app.goo.gl/gYpbWBnuh5byjQcP9,Chinese,37.4202868,-122.1359942
Easterly Santa Clara,眷湘,"3927 Rivermark Plaza, Santa Clara, CA 95054",https://maps.app.goo.gl/WxJXcNcDm2XH97yN6,Chinese,37.3946020,-121.9456010
Chome,,"3601 26th St, San Francisco, CA 94110",https://maps.app.goo.gl/vupuNgVcxmUse4Ni9,Japanese,37.7487628,-122.4214157
Tang Bar San Mateo,烫吧,"62 E 4th Ave, San Mateo, CA 94401",https://maps.app.goo.gl/j2UwQ3fxWqeLMvVA7,Chinese,37.5629830,-122.3237478
Tang Bar,烫吧,"3251 20th Ave Second Floor, San Francisco, CA 94132",https://maps.app.goo.gl/dmVnqDY7US8D6Fv26,Chinese,37.7277303,-122.4769749
Rintaro,,"82 14th St, San Francisco, CA 94103",https://maps.app.goo.gl/ET4Qatg2UGd5MpJb9,Japanese,37.7688786,-122.4151377
Kunjip Tofu,,"1962 El Camino Real, Mountain View, CA 94040",https://maps.app.goo.gl/g9snJz1y32YV4ZkF6,Korean,37.3944450,-122.0981760
Din Tai Fung,鼎泰丰,"2855 Stevens Creek Blvd #1259, Santa Clara, CA 95050",https://maps.app.goo.gl/nHmXCU8dtZJEyoUd9,Chinese,37.3262207,-121.9441336
SAN HO WON,,"2170 Bryant St, San Francisco, CA 94110",https://maps.app.goo.gl/9CyKsPV6FpVihM5u6,Korean,37.7595856,-122.4102144
Prik Hom,,"3226 Geary Blvd, San Francisco, CA 94118",https://maps.app.goo.gl/Y7kUY1oD3zDVZ8AUA,Thai,37.7818373,-122.4537697
Mister Jiu's,,"28 Waverly Pl, San Francisco, CA 94108",https://maps.app.goo.gl/w1QQtAHAkczgZDMd8,Chinese,37.7937209,-122.4066555
Stonemill Matcha,,"561 Valencia St, San Francisco, CA 94110",https://maps.app.goo.gl/x6FCZxAozXjmTuxH9,Japanese,37.7639633,-122.4216737
Roka Akor - San Francisco,,"801 Montgomery St, San Francisco, CA 94133",https://maps.app.goo.gl/cRMTmmmvWrvETeGAA,Japanese,37.7965511,-122.4038752
Dumpling Hours - Palo Alto,,"530 Bryant St, Palo Alto, CA 94301",https://maps.app.goo.gl/Zk58fzsJZa2Bhu6d7,Chinese,37.4454109,-122.1610970
Dumpling Hours - Oakland,,"3331 Lakeshore Ave, Oakland, CA 94610",https://maps.app.goo.gl/a6DRo3x4S4RMnn749,Chinese,37.8110807,-122.2438301
Yank Sing (Spear St.),羊城荣室,"101 Spear St, San Francisco, CA 94105",https://maps.app.goo.gl/HUY5N2ah2DEL9sPK6,Chinese,37.7926315,-122.3932049
Yank Sing (Stevenson St.),羊城荣室,"49 Stevenson St, San Francisco, CA 94105",https://maps.app.goo.gl/kAZrL6gn8ZdLzAe78,Chinese,37.7898659,-122.3993287
HINODEYA Ramen 680 Clay,,"680 Clay St, San Francisco, CA 94111",https://maps.app.goo.gl/mjseaKWQVf1LwXU2A,Japanese,37.7946079,-122.4044835
HINODEYA Ramen Union Square,,"219 O'Farrell St, San Francisco, CA 94102",https://maps.app.goo.gl/Xr8YzH2EuLrh3jbk6,Japanese,37.7862741,-122.4085169
HINODEYA Ramen Japantown,,"1737 Buchanan St, San Francisco, CA 94115",https://maps.app.goo.gl/BkQtKg5xCGE6SJ5b9,Japanese,37.7861987,-122.4301572
HINODEYA Ramen Chestnut,,"3340 Steiner St, San Francisco, CA 94123",https://maps.app.goo.gl/x1AaGrXiJNaVPJok8,Japanese,37.8002412,-122.4375457
Kenzo Sushi,,"5465 Snell Ave, San Jose, CA 95123",https://maps.app.goo.gl/8mu9Li7p5ZCyMqcTA,Japanese,37.2543068,-121.8312983
SHOWA Le Gourmet Tonkatsu,,"1550 Howard St, San Francisco, CA 94103",https://maps.app.goo.gl/K2Tu3kSTfHJxjENZ6,Japanese,37.7725108,-122.4166053
Old Street Chengpan Malatang,老街称盘麻辣烫,"6080 Stevenson Blvd, Fremont, CA 94538",https://maps.app.goo.gl/HJzWScVMdXm15MXz9,Chinese,37.5184090,-121.9896020
Chong Qing Noodle,表姐重庆面馆,"39229 Cedar Blvd, Newark, CA 94560",https://maps.app.goo.gl/cX1nmWjqFUnAmcPB8,Chinese,37.5225072,-122.0048127
GAO’s BBQ & Crab Milpitas,老高烧烤旧金山店,"1741 N Milpitas Blvd, Milpitas, CA 95035",https://maps.app.goo.gl/37yckXM213mPiT3U9,Chinese,37.4554472,-121.9117963
Liang's Village,梁妈妈家,"20530 Stevens Creek Blvd, Cupertino, CA 95014",https://maps.app.goo.gl/J4zy3xudd5mXwCky9,Chinese,37.3219071,-122.0333418
Joyous Cuisine,兰亭序,"124 Castro St, Mountain View, CA 94041",https://maps.app.goo.gl/9kRWEcjW7iuNQcKZ9,Chinese,37.3948279,-122.0786482
Shanghai Delight,上海家常菜,"218 Barber Ct, Milpitas, CA 95035",https://maps.app.goo.gl/9DyAJHbhcG22fxHu6,Chinese,37.4234998,-121.9183746
XIN XIN FOOD,,"1901 Las Plumas Ave STE 30, San Jose, CA 95133",https://maps.app.goo.gl/VXGiNP6J1TbtQer26,Chinese,37.3660680,-121.8618776
New China Foods Millbrae,新中华美食,"1595 El Camino Real, Millbrae, CA 94030",https://maps.app.goo.gl/PZbWYrpqa1LXFsJu9,Chinese,37.6122325,-122.4037139
Yuan Bistro,缘聚鑫美食坊,"42 Dixon Rd, Milpitas, CA 95035",https://maps.app.goo.gl/Wn3h2eZ3TSbrg2cd9,Chinese,37.4570759,-121.9105355
Maxine Kitchen,阿美厨房,"1655 Whipple Rd, Hayward, CA 94544",https://maps.app.goo.gl/Upr2U3d566h7GNQd9,Chinese,37.6065891,-122.0492082
K Tea Cafe,,"139 S Murphy Ave B, Sunnyvale, CA 94086",https://maps.app.goo.gl/PCLFPdmKNWY1wQZz9,Korean,37.3770903,-122.0305967
Mingkee Deli,西关明记肠粉,"20956 Homestead Rd G, Cupertino, CA 95014",https://maps.app.goo.gl/QQYABgtUoRdVNSRn9,Chinese,37.3369568,-122.0403888
Hanson’s Pastry since 2011,老宅门面食坊,"1726 N Milpitas Blvd, Milpitas, CA 95035",https://maps.app.goo.gl/V5d9MvXpL2Jv6mXN7,Chinese,37.4554457,-121.9099309
Hanson's Pastry Since 2011 - Newark,老宅门面食坊,"35201 Newark Blvd ste b, Newark, CA 94560",https://maps.app.goo.gl/n5xWhapjfAkR4cYo7,Chinese,37.5479903,-122.0473266
Liukoushui Chongqing Noodles,流口水重庆小面 /汤小福麻辣烫,"19052 Stevens Creek Blvd, Cupertino, CA 95014",https://maps.app.goo.gl/Ra8VzkhssAcwvVbg9,Chinese,37.3225758,-122.0057336
Little Shanghai Restaurant,上海人家,"17 E 25th Ave, San Mateo, CA 94403",https://maps.app.goo.gl/ozcEGp4VwDVMgmYz6,Chinese,37.5449904,-122.3053632
Blue Sky Café,蓝天茶餐厅,"1625 El Camino Real #9, Belmont, CA 94002",https://maps.app.goo.gl/YsAfLVhKchNniEp57,Chinese,37.5144128,-122.2682688
Porridge & Things,,"235 Broadway, Millbrae, CA 94030",https://maps.app.goo.gl/NzuWVvhoTWqq5CwSA,Chinese,37.6001001,-122.3912138
Taste of Shaxian,沙县小吃,"38 E 4th Ave, San Mateo, CA 94401",https://maps.app.goo.gl/FFXzwAt2zpJZ2zN9A,Chinese,37.5626930,-122.3242690
Home Eat - Santa Clara,汉家宴,"638 El Camino Real, Santa Clara, CA 95050",https://maps.app.goo.gl/GQ9LNDF6JmkmfJCL6,Chinese,37.3546492,-121.9421115
China Restaurant,中华路,"31 S B St, San Mateo, CA 94401",https://maps.app.goo.gl/zpXe4PdTfovkaDA38,Chinese,37.5675120,-122.3242000
Full House Cafe,啫煲,"1456 E 14th St, San Leandro, CA 94577",https://maps.app.goo.gl/E22UdTUTpVHkLqL69,Chinese,37.7239323,-122.1542081
Full House Cafe,啫煲,"326 7th St, Oakland, CA 94607",https://maps.app.goo.gl/w8UscCQQKBfheesTA,Chinese,37.7985649,-122.2711266
Shanghai Flavor,面面俱到,"46132 Warm Springs Blvd, Fremont, CA 94539",https://maps.app.goo.gl/PE6NDUwyPGWumt6Y8,Chinese,37.4935918,-121.9309748
Shanghai Flavor Shop,上海生煎馆,"888 Old San Francisco Rd, Sunnyvale, CA 94086",https://maps.app.goo.gl/wLhi4UHJg3y3JHPCA,Chinese,37.3661993,-122.0157934
MiPot,小米麻辣烫,"150 W El Camino Real, Sunnyvale, CA 94087",https://maps.app.goo.gl/68NCbrLcUvKo9F6P9,Chinese,37.3678049,-122.0335234
DH Noodles & Grill,敦煌兰州牛肉拉面,"1183 S De Anza Blvd #60, San Jose, CA 95129",https://maps.app.goo.gl/pDsYA4EfdkD1kSY38,Chinese,37.3039659,-122.0328240
Curry Hyuga,,"19650 Stevens Creek Blvd, Cupertino, CA 95014",https://maps.app.goo.gl/bKLk7z3Uwu2FWG157,Japanese,37.3221680,-122.0178960
Curry Hyuga,,"1819 Market St, San Francisco, CA 94103",https://maps.app.goo.gl/ynYHm4nfdTQM24k57,Japanese,37.7712462,-122.4238573
Curry Hyuga,,"1204 Broadway, Burlingame, CA 94010",https://maps.app.goo.gl/GfprWbkPLeKSmoGX8,Japanese,37.5862166,-122.3649823
Kura Revolving Sushi Bar,,"19600 Vallco Pkwy #160, Cupertino, CA 95014",https://maps.app.goo.gl/URG1TVuuc3PyqgSB8,Japanese,37.3253658,-122.0118873
Kura Revolving Sushi Bar,,"1628 Hostetter Rd Suite 40, San Jose, CA 95131",https://maps.app.goo.gl/TEwtjAwss7HU2u6n7,Japanese,37.3873417,-121.8853003
Kura Revolving Sushi Bar,,"2100 University Ave, Berkeley, CA 94704",https://maps.app.goo.gl/sNgoTm2N7ikMMdDU6,Japanese,37.8720247,-122.2682292
Kura Revolving Sushi Bar,,"3251 20th Ave Space #220, San Francisco, CA 94132",https://maps.app.goo.gl/7gPR59V3XkBvXkHB6,Japanese,37.7280128,-122.4771869
Steam Rice Roll King,谭记石磨肠粉王,"2228 Irving St, San Francisco, CA 94122",https://maps.app.goo.gl/3dvYFST5YfPwwsNC7,Chinese,37.7635533,-122.4820321
Xian Steam Pot & Yakiniku,鱻,"500 Barber Ln, Milpitas, CA 95035",https://maps.app.goo.gl/mc5NKNvnXZAPSCkD8,Chinese,37.4209166,-121.9160191
Taiwanese Eats,台湾小吃,"426 MacArthur Ave, Redwood City, CA 94063",https://maps.app.goo.gl/U6T4BaCftqMVKzCz9,Chinese,37.4777766,-122.2114600
Darda Express,一条龙快餐,"1211 S Mary Ave, Sunnyvale, CA 94087",https://maps.app.goo.gl/JNA1yvGZZXJAuwN69,Chinese,37.3534371,-122.0514280
Fen Classic Guilin Rice Noodles,合味桂林米粉,"542 Barber Ln, Milpitas, CA 95035",https://maps.app.goo.gl/7BSJnhbB5Q8oDpGN6,Chinese,37.4207165,-121.9168051
Hunan Mifen,小香牛骨米粉,"1149 Lawrence Expy, Sunnyvale, CA 94089",https://maps.app.goo.gl/5diAAhzx2hj4h9oS6,Chinese,37.3977108,-121.9970499
Hunan Mifen,小香牛骨米粉,"471 Saratoga Ave, San Jose, CA 95129",https://maps.app.goo.gl/qj2RW9QQVCbp5xvW7,Chinese,37.3189405,-121.9745653
Jinweide Lanzhou Hand-Pulled noodle House,金味德兰州牛肉拉面,"328 Broadway, Millbrae, CA 94030",https://maps.app.goo.gl/SHdqUarecRkWkFmDA,Chinese,37.6012445,-122.3917940
Thanh Son Tofu,,"2857 Senter Rd C, San Jose, CA 95111",https://maps.app.goo.gl/dXAmxBeb1nC9WBjo8,Vietnamese,37.2997664,-121.8404147
Thanh Son Tofu,,"2435 Alvin Ave, San Jose, CA 95121",https://maps.app.goo.gl/XVTSSfQYSoVjig3o9,Vietnamese,37.3188835,-121.8283486
Liu Roast Fish,老刘家烤鱼烤串,"550 Barber Ln, Milpitas, CA 95035",https://maps.app.goo.gl/2zZiRo19rEhSkxsH7,Chinese,37.4205013,-121.9168524
Yin Ji Chang Fen - Milpitas,银记肠粉,"1832 N Milpitas Blvd, Milpitas, CA 95035",https://maps.app.goo.gl/eXvbAgrLvhWPqSXh9,Chinese,37.4563189,-121.9103570
Yin Ji Chang Fen - Berkeley,银记肠粉,"2116 Shattuck Ave., Berkeley, CA 94704",https://maps.app.goo.gl/ULhQaDZxeAnEaXQw9,Chinese,37.8706571,-122.2685679
TANTO Japanese Restaurant,居食酒屋,"1063 E El Camino Real, Sunnyvale, CA 94087",https://maps.app.goo.gl/pKuSc5s3rohVfGVm6,Japanese,37.3526297,-122.0039569
Xian Kitchen,西安食府,"300 Barber Ct, Milpitas, CA 95035",https://maps.app.goo.gl/HZFU6DS7ZVrKrknVA,Chinese,37.4234609,-121.9172768
Z-One Kitchen,岐山肉夹馍,"130 El Camino Real Suite C, San Bruno, CA 94066",https://maps.app.goo.gl/FKFmQi9omGkXySqM6,Chinese,37.6166068,-122.4072161
Jell & Chill,,"10815 N Wolfe Rd Suite 101B, Cupertino, CA 95014",https://maps.app.goo.gl/sf2kAzig9FZBerbk9,Chinese,37.3354958,-122.0147053
HalalStreet Xinjiang Cuisine | Mountain View,,"174 Castro St, Mountain View, CA 94041",https://maps.app.goo.gl/T6ruzB2HUP3iFUP67,Halal,37.3943088,-122.0790175
HalalStreet Hot Pot & Cuisine | Newark,,"5605 Mowry School Rd, Newark, CA 94560",https://maps.app.goo.gl/o8au6EGABhWPcZM56,Halal,37.5234320,-121.9915276
ZSX Szechuan Rice Noodle,曾三仙米线,"6180 Jarvis Ave ste b, Newark, CA 94560",https://maps.app.goo.gl/rvTdduEaqyWkcbsF6,Chinese,37.5487241,-122.0494093
Soong Soong Restaurant,小二又一家,"3680 Stevens Creek Blvd, San Jose, CA 95117",https://maps.app.goo.gl/g6kV5GEo1RU3GchG7,Chinese,37.3225487,-121.9654631
Danacious Dumplings,Dana包子铺,"375 Saratoga Ave M, San Jose, CA 95129",https://maps.app.goo.gl/2ZL437dABfQyf4fU8,Chinese,37.3216882,-121.9716677
Super Potato-Milpitas,粉阿姐超级土豆粉,"177 W Calaveras Blvd, Milpitas, CA 95035",https://maps.app.goo.gl/u9aQDaspEby5e8a27,Chinese,37.4290388,-121.9109367
Henan Braised Noodle,好一方烩面,"1470 N Milpitas Blvd, Milpitas, CA 95035",https://maps.app.goo.gl/pSVaYmmMCKvNp8v36,Chinese,37.4519011,-121.9097672
Tarim Garden Xinjiang Cuisine,,"2135 El Camino Real, Santa Clara, CA 95050",https://maps.app.goo.gl/RgCsRWYyKSGG3N1AA,Halal,37.3529778,-121.9618972
Lai Hong Lounge,荔香小馆,"1416 Powell St, San Francisco, CA 94133",https://maps.app.goo.gl/zD4WUF9YGETCNSM87,Chinese,37.7978641,-122.4101339
Dope pho,,"43460 Grimmer Blvd, Fremont, CA 94538",https://maps.app.goo.gl/sjYpYgQxtr7KTFN97,Vietnamese,37.5105530,-121.9629082
Haidilao Hot Pot Cupertino,海底捞,"19409 Stevens Creek Blvd #100, Cupertino, CA 95014",https://maps.app.goo.gl/Hf7QEx153prns51g9,Chinese,37.3237850,-122.0092010
Haidilao Hot Pot Fremont City,海底捞,"43349 Boscell Rd, Fremont, CA 94538",https://maps.app.goo.gl/UnFKY5QJsxWKDRbo9,Chinese,37.5032045,-121.9765929
Miss Shang,小香融合料理,"1828 N Milpitas Blvd, Milpitas, CA 95035",https://maps.app.goo.gl/7z5b2kDJdPDXeYqB6,Chinese,37.4566005,-121.9101770
Venus Cafe,,"1698 Hostetter Rd K, San Jose, CA 95131",https://maps.app.goo.gl/y3GRWgFGhkQk6YWV9,Chinese,37.3871958,-121.8835047
Venus Cafe,,"6267 Jarvis Ave, Newark, CA 94560",https://maps.app.goo.gl/3GG95J3oCAefWt276,Chinese,37.5498263,-122.0517260
General Pot,锅将军,"43767 Boscell Rd, Fremont, CA 94538",https://maps.app.goo.gl/HUK8U6j59DBYvXNi7,Chinese,37.5002612,-121.9730595
Pho Tick Tock Restaurant,,"399 N Capitol Ave, San Jose, CA 95133",https://maps.app.goo.gl/bezxtCEyMhjQwPCG8,Vietnamese,37.3719769,-121.8461756
CEO Noodles,,"130 E Santa Clara St, San Jose, CA 95113",https://maps.app.goo.gl/SRQFZy1XTuitJVRF6,Chinese,37.3372485,-121.8877680
Mifen101,花溪米粉王,"841 Villa St, Mountain View, CA 94041",https://maps.app.goo.gl/NEAa1xcLTtbvyvR58,Chinese,37.3938904,-122.0795080
Ramen Hajime,,"5229 Stevens Creek Blvd, Santa Clara, CA 95051",https://maps.app.goo.gl/5voR3ezHYYYYB69s6,Japanese,37.3239928,-121.9943292
Fu Niu Tang Noodle Talk,福牛堂,"711 Sunnyvale Saratoga Rd, Sunnyvale, CA 94087",https://maps.app.goo.gl/r5jU5Pgpu4tiB22z5,Chinese,37.3676245,-122.0335972
ChongQing Xiao Mian,饿了么活鱼馆,"34420 Fremont Blvd, Fremont, CA 94555",https://maps.app.goo.gl/DF46NpagyNA6cXseA,Chinese,37.5756032,-122.0397984
Dumpling & Dough,,"1195 Laurel St, San Carlos, CA 94070",https://maps.app.goo.gl/FbasizUJN7DUTupQ8,Chinese,37.4990488,-122.2519844
Little Seven Special Soup w/Rice,酸小七贵州酸汤鱼,"46529 Mission Blvd, Fremont, CA 94539",https://maps.app.goo.gl/ksgFmufrusq4vvet9,Chinese,37.4925700,-121.9285781
Mr. SiuMai,烧卖皇,"2070 N Capitol Ave, San Jose, CA 95132",https://maps.app.goo.gl/1Cfaoe8n6RyCtSeFA,Chinese,37.4068698,-121.8865543
Master Oh,오선생,"1484 Halford Ave, Santa Clara, CA 95051",https://maps.app.goo.gl/s99iEqTq5VitGsxT6,Korean,37.3512667,-121.9999592
Phoenix Pot,,"210 Barber Ct, Milpitas, CA 95035",https://maps.app.goo.gl/FaASgFP9JvzReirB7,Chinese,37.4235486,-121.9185771
MUTANKE | Sweet Garden,慕碳客,"39473 Fremont Blvd, Fremont, CA 94538",https://maps.app.goo.gl/WGrVZUYmMpnNn2zU6,Chinese,37.5438073,-121.9817575
Hao Shi Ji,好食鸡无骨鸡爪,"46537 Mission Blvd, Fremont, CA 94539",https://maps.app.goo.gl/yFSyAmpCNAa8wSHz8,Chinese,37.4921903,-121.9288223
China Chen,玉兰亭餐厅,"400 S Third St, San Jose, CA 95112",https://maps.app.goo.gl/VNNcpZ7yY8e7BF9W9,Chinese,37.3310733,-121.8835439
Chez Xue,,"1000 Metro Center Blvd A, Foster City, CA 94404",https://maps.app.goo.gl/bgQqRoqV35ob5QS28,Chinese,37.5606952,-122.2742476
Chili Garden,山城私房菜,"278 Barber Ct, Milpitas, CA 95035",https://maps.app.goo.gl/Jmtn7ioy4phYCb7q8,Chinese,37.4237885,-121.9178103
Gao Viet Kitchen,,"313 S San Mateo Dr, San Mateo, CA 94401",https://maps.app.goo.gl/3YttjoboTLQZoWWT8,Vietnamese,37.5641216,-122.3236615
Siam Station Cupertino,,"20956 Homestead Rd A2, Cupertino, CA 95014",https://maps.app.goo.gl/tP3tQs2EkKDbDVNQA,Thai,37.3369509,-122.0402513
Ramen Nagi,,"2855 Stevens Creek Blvd, Santa Clara, CA 95050",https://maps.app.goo.gl/kSCBEsgZ7bVwetsM8,Japanese,37.3267237,-121.9433972
Ramen Nagi,,"541 Bryant St, Palo Alto, CA 94301",https://maps.app.goo.gl/epKLGjtcq2ZE3bMK6,Japanese,37.4454876,-122.1607233
Simmer Huang,黄记煌,"2016 Newpark Mall Rd, Newark, CA 94560",https://maps.app.goo.gl/KM8WBpjBbY78GicU8,Chinese,37.5261764,-122.0021794
Yayoi Cupertino,,"20682 Homestead Rd, Cupertino, CA 95014",https://maps.app.goo.gl/NUtHPm2Xcp2v7idK8,Japanese,37.3371851,-122.0363624
YAYOI Hillsdale,,"389 Hillsdale Mall, San Mateo, CA 94403",https://maps.app.goo.gl/N1FFa6L2PWvUsj2i7,Japanese,37.5361592,-122.2991585
YAYOI Palo Alto,,"403 University Ave, Palo Alto, CA 94301",https://maps.app.goo.gl/cUZRbaSP6e5vY7Cq6,Japanese,37.4473550,-122.1605240
Layang Layang Malaysian Cuisine,,"181 W Calaveras Blvd, Milpitas, CA 95035",https://maps.app.goo.gl/jfyJcMshoATL9DQf9,Malaysian,37.4289812,-121.9112424
Hanlin Tea Room- Cupertino,翰林茶铺,"10271 Torre Ave, Cupertino, CA 95014",https://maps.app.goo.gl/EKB1PpBWGNf39JPb6,Chinese,37.3185581,-122.0295482
Spicy Kitchen,重庆老贾厨房,"35201-a Newark Blvd, Newark, CA 94560",https://maps.app.goo.gl/fcG2awiB5Mw579g97,Chinese,37.5477112,-122.0468994
Homi Japanese Ramen,蒸功夫,"1133 Lawrence Expy, Sunnyvale, CA 94089",https://maps.app.goo.gl/B9bPp2Wh9kJZoE8f6,"Chinese, Japanese",37.3971720,-121.9970944
Oppaya789,,"1010 E El Camino Real, Sunnyvale, CA 94087",https://maps.app.goo.gl/FGXcB1eWDtzq5VML9,Korean,37.3517943,-122.0066006
The Public Izakaya,,"700 Post St, San Francisco, CA 94109",https://maps.app.goo.gl/kSXoXkJSXZ5sESk59,Japanese,37.7878209,-122.4135990
Hometown Kitchen,顾湘,"1245 Jacklin Rd, Milpitas, CA 95035",https://maps.app.goo.gl/igLQmoQxGFYW6zYj7,Chinese,37.4481809,-121.8882900
Bel Cool Tasty Pot,倍儿爽麻辣香锅,"10851 N Wolfe Rd, Cupertino, CA 95014",https://maps.app.goo.gl/8HbEhypwJehdgvy67,Chinese,37.3358691,-122.0152575
Hong Dae Pocha,,"3450 E El Camino Real #101, Santa Clara, CA 95051",https://maps.app.goo.gl/aEHakYakerhtwWR87,Korean,37.3518311,-121.9910309
Taishan Cuisine,台山风味餐厅,"781 Broadway, San Francisco, CA 94133",https://maps.app.goo.gl/DAs73A9v48Kgrtnn8,Chinese,37.7972963,-122.4098764
Mingala Restaurant,,"39055 Cedar Blvd #108, Newark, CA 94560",https://maps.app.goo.gl/6bEoUe7N37cTdxmw8,Malaysian,37.5235568,-122.0081634
Fugetsu - San Jose,,"4342 Moorpark Ave Ste. 20, San Jose, CA 95129",https://maps.app.goo.gl/DqvuiqfQgD43HwAj6,Japanese,37.3156752,-121.9783166
Fugetsu - Sunnyvale,,"inside Rokko, 190 S Frances St, Sunnyvale, CA 94086",https://maps.app.goo.gl/fUYtyD7XSrEbDEgG6,Japanese,37.3764438,-122.0311840
Dynasty BBQ,人间烟火小酒馆,"1653 Hollenbeck Ave, Sunnyvale, CA 94087",https://maps.app.goo.gl/8p63V1frL4bEYaKZA,Chinese,37.3392241,-122.0426325
Dynasty BBQ,人间烟火小酒馆,"105 W 25th Ave, San Mateo, CA 94403",https://maps.app.goo.gl/YvWwo8eiSDAo3y8t6,Chinese,37.5436791,-122.3071561
Yakini Q SJ,,"1783 W San Carlos St, San Jose, CA 95128",https://maps.app.goo.gl/T6N3cLGww4PuRw6X6,Korean,37.3239635,-121.9244778
Mala Town,自选麻辣烫,"438 Barber Ln, Milpitas, CA 95035",https://maps.app.goo.gl/AbQKnqx4Gq14RZgX8,Chinese,37.4220556,-121.9174880
Mala Town,自选麻辣烫,"1737 Decoto Rd, Union City, CA 94587",https://maps.app.goo.gl/uWTmNJdFr592n4bc8,Chinese,37.5894883,-122.0221885
Hing Lung,兴隆小馆,"1230 El Camino Real P, San Bruno, CA 94066",https://maps.app.goo.gl/HkfxaetKzmL8KCig7,Chinese,37.6394014,-122.4209327
Mumu Hot Pot,,"1273 Lawrence Station Rd, Sunnyvale, CA 94089",https://maps.app.goo.gl/vfDGvDPaN6oEunhN9,Chinese,37.4065269,-121.9963567
Mumu Hot Pot,,"1099 Foster Square Ln #135, Foster City, CA 94404",https://maps.app.goo.gl/th4J1dQUdw3n42HK9,Chinese,37.5591948,-122.2680528
Mumu Hot Pot,,"2 Varela Ave Ste 203, San Francisco, CA 94132",https://maps.app.goo.gl/SRgdzNMvSrZbowge8,Chinese,37.7204075,-122.4768375
Mumu Hot Pot,,"5699 Bay St, Emeryville, CA 94608",https://maps.app.goo.gl/S7cfazopbzsvBwqt5,Chinese,37.8368714,-122.2927318
Tasty Pot (De Anza),,"1183 S De Anza Blvd #30, San Jose, CA 95129",https://maps.app.goo.gl/bVHzjvVTVjAR2rWa8,Chinese,37.3040100,-122.0327693
Miga Korean Restaurant,,"39033 State St, Fremont, CA 94538",https://maps.app.goo.gl/7nHLMdMEKFc8fbkK7,Korean,37.5503204,-121.9855859
The Yakitori Bar,,"46260 Warm Springs Blvd UNIT 529, Fremont, CA 94539",https://maps.app.goo.gl/9X7msNuYfFVyHh2k7,Japanese,37.4925962,-121.9296974
Imperial Treasure,宝藏,"151 California Ave unit e, Palo Alto, CA 94306",https://maps.app.goo.gl/2uewNGtnvEdxcvTQ9,Chinese,37.4283830,-122.1422935
Grandma's Kitchen,外婆家常菜,"19541 Richwood Dr, Cupertino, CA 95014",https://maps.app.goo.gl/yQgJ4u5r7YziHE7f9,Chinese,37.3219968,-122.0148829
Din Ding Dumpling House Union City,鼎顶,"1779 Decoto Rd, Union City, CA 94587",https://maps.app.goo.gl/BLrdtcZe8SfeGoFu7,Chinese,37.5892769,-122.0226915
Din Ding Dumpling House Fremont,鼎顶,"3768 J Capitol Ave, Fremont, CA 94538",https://maps.app.goo.gl/MPx12FvmgbJcKuBXA,Chinese,37.5487529,-121.9854840
Bò Né Phú Yên,,"1818 Tully Rd, San Jose, CA 95122",https://maps.app.goo.gl/YS3fjF457BbJvxW27,Vietnamese,37.3221050,-121.8232817
Hunan House,一屋饭湘,"122 S Sunnyvale Ave, Sunnyvale, CA 94086",https://maps.app.goo.gl/nYejc5TeBn1kF3eg7,Chinese,37.3766525,-122.0287799
Feng Hotpot,冯校长老火锅,"1669 Hollenbeck Ave A, Sunnyvale, CA 94087",https://maps.app.goo.gl/tt6dPBf2xtRsAsJb7,Chinese,37.3387227,-122.0425458
Imperial Soup,皇帝汤,"723 Webster St, Oakland, CA 94607",https://maps.app.goo.gl/EGxHaTQBoEckHESPA,Chinese,37.7989844,-122.2717487
Highland Noodles,金城·兰州拉面,"1720 N Milpitas Blvd, Milpitas, CA 95035",https://maps.app.goo.gl/WeevHXWjrKJfLNt18,Chinese,37.4552901,-121.9099436